{
  "norad_id": 62950,
  "name": "STARLINK-32850",
  "history": [
    {
      "epoch": "2026-03-28T20:49:53.019264",
      "apogee_km": 476.4761077049825,
      "perigee_km": 473.77509984758126,
      "latitude_deg": 34.39810963305921,
      "longitude_deg": -161.67442304012366,
      "semi_major_axis_km": 6853.262603776281,
      "eccentricity": 0.00019706,
      "inclination_deg": 53.1599,
      "raan_deg": 143.3918,
      "arg_perigee_deg": 84.1157,
      "mean_anomaly_deg": 276.0068,
      "mean_motion_rev_day": 15.30229964
    }
  ]
}