{"fetched_at":"2026-03-29T16:36:15Z","count":15609,"tles":[{"name":"STARLINK-32850","line1":"1 62950U 25029C   26087.86797476  .00021849  00000+0  74695-3 0  9994","line2":"2 62950  53.1599 143.3918 0001970  84.1157 276.0068 15.30229964 64266","category":"Starlink"}]}